Key,CITY,COUNTY,STATE,ZIP,MS1,MS2,MS3,MS4,MS5,MS6,MS7,MS8,MS9,MS10
Key13,FORT IRWIN,SAN BERNARDINO,CA,92310,276,405,406,276,336,364,598,613,630,654
Key14,NICASIO,MARIN,CA,94946,318,318,318,318,316,318,682.24,470,557,476
Key21,FORT IRWIN,SAN BERNARDINO,CA,92310,276,405,406,276,336,364,458,469,486,511
Key25,FORT IRWIN,SAN BERNARDINO,CA,92310,276,405,406,276,336,364,616,657,710,662
Key26,FORT IRWIN,SAN BERNARDINO,CA,92310,276,405,406,276,336,364,472,538,543,571
Key38,FREMONT,ALAMEDA,CA,94555,168,703,737,582,582,1031,1057,1120,1140,1149
Key40,SAN FRANCISCO,SAN FRANCISCO,CA,94110,494,101,631,160.83,164.52,710,715,753,817,764
Key42,OAKLAND,ALAMEDA,CA,94611,221,242,354,276,118,530,562,625,744,713
Key43,SAN FRANCISCO,SAN FRANCISCO,CA,94117,522,113,379,160.83,164.52,640,611,696,743,672
Key44,CASTRO VALLEY,ALAMEDA,CA,94552,481,551,791,143,233,885,892,962,1096,1035
Key45,SAN FRANCISCO,SAN FRANCISCO,CA,94133,494,437,743,160.83,164.52,898,912,989,1034,1024
Key48,SACRAMENTO,SACRAMENTO,CA,95837,420,96,173,160.83,420,509,572,677,721,714
Key57,SAN DIEGO,SAN DIEGO,CA,92127,1270,258.2,529,160.83,1270,865,889,1270,1109,1108
Key58,SAN DIEGO,SAN DIEGO,CA,92101,96.6,258.2,98,800,164.52,608,608,801,809,822
Key61,VALENCIA,LOS ANGELES,CA,91381,96.6,258.2,371,160.83,164.52,519,605,661,702,678
Key67,FORT IRWIN,SAN BERNARDINO,CA,92310,276,405,406,276,336,364,610,641,696,661
Key68,FORT IRWIN,SAN BERNARDINO,CA,92310,276,405,406,276,336,364,474,559,567,577
Key69,FORT IRWIN,SAN BERNARDINO,CA,92310,276,405,406,276,336,364,566,591,610,607
Key70,FORT IRWIN,SAN BERNARDINO,CA,92310,276,405,406,276,336,364,472,538,543,571
Key71,FORT IRWIN,SAN BERNARDINO,CA,92310,276,405,406,276,336,364,631,652,696,662
Key76,FORT IRWIN,SAN BERNARDINO,CA,92310,276,405,406,276,336,364,458,469,495,516
Key77,FORT IRWIN,SAN BERNARDINO,CA,92310,276,405,406,276,336,364,578,603,655,609
Key81,FORT IRWIN,SAN BERNARDINO,CA,92310,276,405,406,276,336,364,614,630,630,654
Key85,PLEASANTON,ALAMEDA,CA,94588,356,601,629,438,454,794,808,878,937,989
Key86,SACRAMENTO,SACRAMENTO,CA,95814,96.6,405,490,28,95,588,591,669,753,696
Key88,FRESNO,FRESNO,CA,93720,96.6,258.2,385.85,160.83,164.52,402,410,515,637,543
Key89,PLEASANTON,ALAMEDA,CA,94588,96.6,258.2,559,160.83,164.52,817,819,909,1046,997
Key91,SANTA ROSA,SONOMA,CA,95401,146,350,481,259,241,655,615,955,971,809
Key92,FAIRFIELD,SOLANO,CA,94534,339,461,569,385,388,682,682,719,784,787
Key94,FRESNO,FRESNO,CA,93720,96.6,375,599,160.83,164.52,712,716,782,856,855
Key105,HUNTINGTON PARK,LOS ANGELES,CA,90255,96.6,266,454,102,199,622,682,801,819,833
Key107,FORT IRWIN,SAN BERNARDINO,CA,92310,276,405,406,276,336,364,584,598,655,609
Key132,TEMECULA,RIVERSIDE,CA,92591,21,258.2,385.85,90,90,331,335,360,485,560
Key149,FORT IRWIN,SAN BERNARDINO,CA,92310,276,405,406,276,336,396,524,578,610,607
Key150,FORT IRWIN,SAN BERNARDINO,CA,92310,276,405,406,276,336,364,610,654,696,662
Key161,SAN DIEGO,SAN DIEGO,CA,92154,31,167,232,168,49,415,448,573,577,584
Key162,SAN DIEGO,SAN DIEGO,CA,92154,31,183,252,175,70,407,423,491,512,507
Key164,COMMERCE,LOS ANGELES,CA,90040,240,466,569,223,358,610,679,840,865,994
Key165,PASADENA,LOS ANGELES,CA,91101,240,283,513,223,496,792,808,935,1187,949
Key167,LOS ANGELES,LOS ANGELES,CA,90006,140,424,557,210,297,802,806,893,987,1087
Key168,LAGUNA NIGUEL,ORANGE,CA,92677,240,465,703,336,343,828,844,970,1092,983
Key169,FULLERTON,ORANGE,CA,92833,240,373,569,294,295,743,779,879,893,924
Key172,NORTH HOLLYWOOD,LOS ANGELES,CA,91605,79,258.2,385.85,223,223,709,756,903,1066,918
Key173,NORTH HOLLYWOOD,LOS ANGELES,CA,91606,79,319,458,223,223,621,637,809,892,819
Key174,YORBA LINDA,ORANGE,CA,92887,240,525,710,415,413,814,847,956,1092,976
Key175,WEST COVINA,LOS ANGELES,CA,91792,240,528,723,223,329,823,840,942,1149,967
Key176,COSTA MESA,ORANGE,CA,92627,240,378,434,325,329,631,651,728,805,760
Key177,SANTA FE SPRINGS,LOS ANGELES,CA,90670,141,527,527,457,457,841,865,1005,1058,1015
Key181,FORT IRWIN,SAN BERNARDINO,CA,92310,276,405,406,276,336,364,631,647,654,662
Key182,FORT IRWIN,SAN BERNARDINO,CA,92310,276,405,406,276,336,364,598,612,630,654
Key183,FORT IRWIN,SAN BERNARDINO,CA,92310,276,405,406,276,336,364,616,630,630,654
Key211,LOST HILLS,KERN,CA,93249,362,393,393,84,180,435,471,597,637,657
Key221,SANTA MARIA,SANTA BARBARA,CA,93455,7,182,265,73,76,361,420,524,531,538
Key222,CAMARILLO,VENTURA,CA,93010,33,225,337,88,88,407,435,511,524,552
Key223,SANTA MARIA,SANTA BARBARA,CA,93454,7,139,287,61,66,454,482,619,684,630
Key225,FORT IRWIN,SAN BERNARDINO,CA,92310,276,405,406,276,336,364,640,649,654,661
Key230,HOLTVILLE,IMPERIAL,CA,92250,31,120,316,168,45,469,476,608,610,640
Key231,CALEXICO,IMPERIAL,CA,92231,31,204,206,168,150,366,381,510,559,514
Key232,IMPERIAL,IMPERIAL,CA,92251,31,170,195,175,64,398,419,568,610,576
Key239,SAN DIEGO,SAN DIEGO,CA,92126,138,244,589,138,198,688,691,930,939,988
Key240,CHULA VISTA,SAN DIEGO,CA,91914,138,274,408,138,184,602,607,797,730,811
Key252,EL CENTRO,IMPERIAL,CA,92243,31,148,316,168,463,456,463,563,610,580
Key253,WESTMORLAND,IMPERIAL,CA,92281,31,150,177,168,45,297,321,503,517,517
Key283,MOUNTAIN VIEW,SANTA CLARA,CA,94043,790,524,827,722,722,1093,1110,1173,1260,1225
Key296,CARSON,LOS ANGELES,CA,90745,240,455,455,248,249,637,667,767,805,774
Key301,SACRAMENTO,SACRAMENTO,CA,95811,96.6,233,233,160.83,164.52,505,509,568,659,609
Key303,LAKEHEAD,SHASTA,CA,96051,36,267,368,118,160,433,442,516,623,565
Key307,SAN DIEGO,SAN DIEGO,CA,92117,42,132,327,216,81,476,486,612,652,619
Key312,TORRANCE,LOS ANGELES,CA,90505,141,357,618,252,261,833,844,1002,1187,1010
Key367,SOUTH LAKE TAHOE,EL DORADO,CA,96150,96.6,444,496,160.83,301,642,642,718,770,760
Key368,PACIFIC GROVE,MONTEREY,CA,93950,96.6,504,682,307,307,733,734,795,1106,881
Key387,LANCASTER,LOS ANGELES,CA,93534,152,460,496,228,299,678,704,851,888,916
Key406,DOWNEY,LOS ANGELES,CA,90242,236,586,650,482,482,738,798,978,1088,1256
Key411,ROCKLIN,PLACER,CA,95765,96.6,391,503,236,269,599,599,689,775,697
Key416,LANCASTER,LOS ANGELES,CA,93534,240,374,428,223,223,599,619,722,798,767
Key419,RANCHO SANTA FE,SAN DIEGO,CA,92091,97,314,462,97,286,738,752,829,902,854
Key423,LA MIRADA,LOS ANGELES,CA,90638,240,338,535,273,277,738,813,879,1093,919
Key426,BUENA PARK,ORANGE,CA,90620,186,431,484,205,212,618,634,739,805,771
Key443,IRVINE,ORANGE,CA,92620,96.6,258.2,2,160.83,164.52,383,401,565,643,565
Key444,LAKE FOREST,ORANGE,CA,92630,96.6,660,721,574,576,794,834,933,980,945
Key445,BAKERSFIELD,KERN,CA,93313,96.6,258.2,155,160.83,164.52,319,326,472,479,479
Key446,LOS ANGELES,LOS ANGELES,CA,90005,96.6,666,770,160.83,424,850,879,984,1005,1032
Key447,NEWPORT BEACH,ORANGE,CA,92660,96.6,258.2,385.85,160.83,164.52,543,550,672,696,716
Key448,PASADENA,LOS ANGELES,CA,91105,96.6,2,185,160.83,164.52,351,444,571,696,571
Key455,PASADENA,LOS ANGELES,CA,91107,96.6,258.2,156,160.83,164.52,577,578,700,757,735
Key456,BAKERSFIELD,KERN,CA,93311,96.6,258.2,115,160.83,164.52,487,567,728,729,763
Key475,ANAHEIM,ORANGE,CA,92802,96.6,95,128,160.83,164.52,727,838,914,1006,948
Key479,BEAUMONT,RIVERSIDE,CA,92223,83,84,84,84,84,273,292,357,465,368
Key498,ESCONDIDO,SAN DIEGO,CA,92026,96.6,21,476,752,164.52,700,700,801,906,949
Key506,SUNNYVALE,SANTA CLARA,CA,94085,96.6,258.2,385.85,160.83,164.52,708,712,847,898,897
Key510,SAN MATEO,SAN MATEO,CA,94403,96.6,258.2,385.85,160.83,164.52,563,575,694,739,723
Key522,PALMDALE,LOS ANGELES,CA,93550,96.6,258.2,385.85,160.83,164.52,147,156,270,322,472
Key542,HAWTHORNE,LOS ANGELES,CA,90250,96.6,278,363,160.83,164.52,474,543,637,651,690
Key550,SALINAS,MONTEREY,CA,93901,96.6,163,385.85,160.83,164.52,402,419,531,619,556
Key560,PASADENA,LOS ANGELES,CA,91109,96.6,258.2,385.85,160.83,164.52,474,539,628,683,661
Key562,LOS ANGELES,LOS ANGELES,CA,90006,96.6,258.2,385.85,160.83,164.52,291,297,395,457,452
Key564,LAGUNA BEACH,ORANGE,CA,92651,96.6,258.2,457,160.83,164.52,543,641,757,861,863
Key566,LONG BEACH,LOS ANGELES,CA,90813,96.6,258.2,385.85,160.83,164.52,165,338,456,547,457
Key567,LONG BEACH,LOS ANGELES,CA,90806,96.6,338,389,160.83,233,562,620,728,781,764
Key568,LONG BEACH,LOS ANGELES,CA,90813,96.6,258.2,119,160.83,164.52,284,392,563,669,567
Key569,LOS ANGELES,LOS ANGELES,CA,90047,96.6,58,371,160.83,164.52,564,592,683,702,794
Key571,BAKERSFIELD,KERN,CA,93307,96.6,258.2,31,160.83,164.52,353,403,444,464,485
Key572,BAKERSFIELD,KERN,CA,93309,96.6,258.2,273,160.83,164.52,485,487,637,640,640
Key573,BAKERSFIELD,KERN,CA,93307,96.6,258.2,86,160.83,164.52,282,283,365,421,512
Key574,LONG BEACH,LOS ANGELES,CA,90804,96.6,120,130,160.83,164.52,702,710,900,945,934
Key575,SANTA MONICA,LOS ANGELES,CA,90405,96.6,520,575,160.83,164.52,794,802,893,913,920
Key576,LOS ANGELES,LOS ANGELES,CA,90065,96.6,258.2,385.85,160.83,164.52,277,338,380,438,477
Key585,STOCKTON,SAN JOAQUIN,CA,95202,790,258.2,542,91,91,841,841,1001,1079,1093
Key586,ATHERTON,SAN MATEO,CA,94027,790,909,901,722,722,676,837,1015,1068,951
Key591,FORT IRWIN,SAN BERNARDINO,CA,92310,96.6,258.2,385.85,160.83,164.52,327,378,515,594,654
Key601,LOS ANGELES,LOS ANGELES,CA,90011,96.6,258.2,385.85,160.83,164.52,165,304,448,623,448
Key602,IRVINE,ORANGE,CA,92603,96.6,258.2,385.85,160.83,164.52,354,356,591,594,630
Key604,LUDLOW,SAN BERNARDINO,CA,92338,96.6,258.2,385.85,160.83,164.52,341,372,488,593,563
Key608,LUCERNE VALLEY,SAN BERNARDINO,CA,92356,96.6,258.2,60,160.83,164.52,409,417,574,654,609
Key614,PALA,SAN DIEGO,CA,92059,96.6,563,738,160.83,164.52,1046,1049,1112,1116,1142
Key621,ROSEVILLE,PLACER,CA,95747,96.6,343,473,160.83,203,585,586,663,749,685
Key622,MILPITAS,SANTA CLARA,CA,95035,96.6,258.2,385.85,160.83,164.52,319,328,458,544,476
Key626,DISCOVERY BAY,CONTRA COSTA,CA,94505,96.6,258.2,227,160.83,164.52,565,573,650,689,689
Key634,SALINAS,MONTEREY,CA,93905,96.6,258.2,156,160.83,164.52,367,367,515,717,573
Key646,MANTECA,SAN JOAQUIN,CA,95336,96.6,335,444,160.83,188,606,616,780,916,1001
Key647,WINTON,MERCED,CA,95388,339,473,473,370,378,756,766,815,999,908
Key654,WARNER SPRINGS,SAN DIEGO,CA,92086,31,122,128,168,49,297,363,451,454,456
Key657,MURRIETA,RIVERSIDE,CA,92562,34,34,34,34,34,34,119,246,339,257
Key705,SAN FRANCISCO,SAN FRANCISCO,CA,94115,96.6,515,817,94,94,901,1263,1334,1390,1363
Key738,LIVERMORE,ALAMEDA,CA,94550,96.6,118,585,160.83,77,741,743,826,1031,853
Key739,CERES,STANISLAUS,CA,95307,165,497,497,372,402,652,652,707,865,809
Key740,SACRAMENTO,SACRAMENTO,CA,95833,198,458,515,263,345,645,645,732,828,750
Key745,PENRYN,PLACER,CA,95663,96.6,521,556,160.83,164.52,667,686,738,800,812
Key750,HAYWARD,ALAMEDA,CA,94542,130,438,546,289,297,742,749,833,962,864
Key751,NOVATO,MARIN,CA,94945,96.6,258.2,351,160.83,164.52,485,485,571,646,581
Key753,BERKELEY,ALAMEDA,CA,94703,96.6,301,467,173,173,592,598,684,697,697
Key754,CARMEL,MONTEREY,CA,93923,96.6,258.2,385.85,160.83,164.52,539,539,651,966,662
Key755,PORTERVILLE,TULARE,CA,93257,376,499,526,422,422,817,838,940,1034,1006
Key756,TURLOCK,STANISLAUS,CA,95382,96.6,258.2,385.85,160.83,164.52,244,248,331,549,395
Key757,OAKDALE,STANISLAUS,CA,95361,96.6,68,166,160.83,164.52,673,680,901,995,916
Key758,OAKLAND,ALAMEDA,CA,94612,96.6,258.2,385.85,160.83,164.52,394,395,519,575,535
Key759,SAN FRANCISCO,SAN FRANCISCO,CA,94103,144,352,574,273,189,634,640,707,802,732
Key762,TULARE,TULARE,CA,93274,221,337,395,261,261,595,596,665,821,722
Key763,NAPA,NAPA,CA,94559,96.6,474,634,347,406,826,827,1061,1096,1079
Key764,OAKLAND,ALAMEDA,CA,94612,96.6,149,346,160.83,164.52,514,519,664,965,742
Key766,FULLERTON,ORANGE,CA,92831,96.6,258.2,385.85,160.83,164.52,301,354,519,547,519
Key767,CARSON,LOS ANGELES,CA,90745,96.6,258.2,113,160.83,164.52,396,430,669,723,696
Key768,IRVINE,ORANGE,CA,92618,96.6,258.2,385.85,160.83,164.52,746,751,885,931,911
Key769,LOS ANGELES,LOS ANGELES,CA,90047,96.6,258.2,214,160.83,164.52,429,533,591,611,639
Key770,SAN FRANCISCO,SAN FRANCISCO,CA,94117,96.6,439,900,342,344,992,988,1075,1189,1093
Key771,SAN MARTIN,SANTA CLARA,CA,95046,96.6,136,294,160.83,164.52,416,416,503,626,510
Key772,SAN FRANCISCO,SAN FRANCISCO,CA,94103,96.6,258.2,172,160.83,164.52,798,808,906,1026,991
Key773,BERKELEY,ALAMEDA,CA,94703,96.6,399,565,160.83,315,690,700,766,873,795
Key774,SAN CARLOS,SAN MATEO,CA,94070,96.6,258.2,385.85,160.83,164.52,314,238,346,346,336
Key775,MODESTO,STANISLAUS,CA,95351,96.6,258.2,385.85,160.83,164.52,268,271,421,646,470
Key777,OROSI,TULARE,CA,93647,221,354,499,262,262,633,658,736,809,750
Key778,SALINAS,MONTEREY,CA,93906,96.6,514,633,160.83,162,658,678,744,1015,884
Key779,FRESNO,FRESNO,CA,93711,96.6,258.2,385.85,160.83,164.52,448,448,671,938,713
Key780,ALBANY,ALAMEDA,CA,94706,96.6,210,356,193,206,481,493,574,840,657
Key781,NICASIO,MARIN,CA,94946,96.6,258.2,385.85,160.83,164.52,229,231,364,476,385
Key783,SAUSALITO,MARIN,CA,94965,96.6,258.2,151,160.83,164.52,812,813,872,1007,911
Key784,LOS ANGELES,LOS ANGELES,CA,90042,96.6,258.2,385.85,160.83,164.52,315,463,577,669,578
Key785,LOS ANGELES,LOS ANGELES,CA,90046,96.6,296,535,160.83,164.52,724,774,870,878,891
Key786,LOS ANGELES,LOS ANGELES,CA,90029,96.6,218,249,160.83,164.52,577,581,746,836,800
Key787,BURBANK,LOS ANGELES,CA,91505,96.6,258.2,385.85,160.83,164.52,847,851,956,975,989
Key788,BURBANK,LOS ANGELES,CA,91504,96.6,258.2,385.85,160.83,164.52,458,458,549,570,577
Key790,TULARE,TULARE,CA,93274,221,354,743,262,262,634,667,735,1079,766
Key791,SALINAS,MONTEREY,CA,93908,96.6,258.2,339,160.83,164.52,560,427,623,697,685
Key792,BERKELEY,ALAMEDA,CA,94707,96.6,203,446,160.83,188,584,602,658,697,679
Key793,FRESNO,FRESNO,CA,93710,96.6,258.2,162,160.83,162,575,598,706,793,756
Key794,SACRAMENTO,SACRAMENTO,CA,95834,96.6,258.2,385.85,160.83,164.52,176,176,379,569,395
Key795,PORTERVILLE,TULARE,CA,93257,96.6,258.2,112,160.83,164.52,517,546,625,713,698
Key796,RICHMOND,CONTRA COSTA,CA,94801,96.6,258.2,385.85,160.83,164.52,442,486,584,632,665
Key797,SAN JOSE,SANTA CLARA,CA,95126,96.6,239,363,160.83,178,477,500,597,822,654
Key798,FRESNO,FRESNO,CA,93725,96.6,195,198,178,178,542,548,619,703,645
Key799,OAKLAND,ALAMEDA,CA,94605,96.6,258.2,385.85,160.83,164.52,191,192,293,549,377
Key800,SAN FRANCISCO,SAN FRANCISCO,CA,94102,96.6,258.2,352,160.83,164.52,526,513,621,721,642
Key802,CASTRO VALLEY,ALAMEDA,CA,94546,96.6,258.2,252,160.83,164.52,519,624,945,965,975
Key803,STOCKTON,SAN JOAQUIN,CA,95205,221,494,501,333,345,688,676,750,879,779
Key804,VISALIA,TULARE,CA,93277,214,319,554,246,256,632,645,735,877,774
Key805,CORCORAN,KINGS,CA,93212,221,339,429,261,261,595,627,686,920,969
Key807,SAN FRANCISCO,SAN FRANCISCO,CA,94158,96.6,24,125,160.83,164.52,580,585,651,749,690
Key808,SAN JOSE,SANTA CLARA,CA,95125,96.6,392,633,160.83,164.52,712,728,782,984,874
Key809,CUPERTINO,SANTA CLARA,CA,95014,96.6,258.2,15,160.83,164.52,581,582,662,840,739
Key810,CUPERTINO,SANTA CLARA,CA,95014,96.6,258.2,385.85,160.83,164.52,385,255,374,641,483
Key811,FOSTER CITY,SAN MATEO,CA,94404,96.6,258.2,385.85,160.83,164.52,458,496,576,755,632
Key812,MONTEREY,MONTEREY,CA,93940,96.6,613,819,160.83,501,1243,1273,1369,1376,1383
Key815,LOS BANOS,MERCED,CA,93635,96.6,77,222,160.83,164.52,480,535,595,689,726
Key816,FRESNO,FRESNO,CA,93706,96.6,258.2,385.85,160.83,164.52,664,694,817,903,852
Key820,SAN PEDRO,LOS ANGELES,CA,90732,96.6,258.2,385.85,160.83,164.52,461,506,691,703,702
Key834,TRACY,SAN JOAQUIN,CA,95391,10,301,364,40,68,462,468,550,609,640
Key844,FRESNO,FRESNO,CA,93740,96.6,192,192,160.83,164.52,576,583,678,828,733
Key847,SAN LEANDRO,ALAMEDA,CA,94578,96.6,258.2,385.85,160.83,164.52,395,405,456,556,519
Key855,VISALIA,TULARE,CA,93291,96.6,258.2,385.85,160.83,164.52,303,348,549,698,579
Key856,SAN FRANCISCO,SAN FRANCISCO,CA,94108,96.6,27,206,160.83,164.52,321,352,447,535,479
Key918,LA MESA,SAN DIEGO,CA,91942,96.6,541,618,160.83,164.52,937,888,962,969,996
Key919,ALPINE,SAN DIEGO,CA,91901,96.6,477,678,160.83,426,1023,1056,1130,1130,1178
Key920,LA MESA,SAN DIEGO,CA,91941,96.6,660,442,160.83,164.52,938,1091,1161,1161,1189
Key967,COLFAX,PLACER,CA,95713,42,279,368,145,167,417,459,495,663,589
Key968,TULARE,TULARE,CA,93274,28,63,105,32,32,217,217,335,453,383
Key974,OAKLAND,ALAMEDA,CA,94612,96.6,258.2,385.85,160.83,164.52,404,420,532,600,544
Key1005,EL CAJON,SAN DIEGO,CA,92021,138,190,282,138,135,493,525,623,663,681
Key1006,SANTEE,SAN DIEGO,CA,92071,138,219,408,138,135,546,602,713,730,741
Key1040,VACAVILLE,SOLANO,CA,95687,96.6,258.2,385.85,160.83,164.52,122,127,226,458,367
Key1041,LEMOORE,KINGS,CA,93245,96.6,301,364,160.83,203,509,557,675,756,697
Key1046,FONTANA,SAN BERNARDINO,CA,92335,96.6,425,799,160.83,164.52,824,835,1002,1058,1014
Key1047,OJAI,VENTURA,CA,93023,96.6,434,586,160.83,164.52,792,793,860,883,1036
Key1048,FILLMORE,VENTURA,CA,93015,96.6,258.2,323,160.83,164.52,551,562,679,695,727
Key1049,OXNARD,VENTURA,CA,93033,96.6,258.2,338,160.83,164.52,548,649,723,723,765
Key1050,RANCHO CUCAMONGA,SAN BERNARDINO,CA,91730,231,392,489,216,302,723,772,905,951,938
Key1051,HEMET,RIVERSIDE,CA,92545,96.6,391,476,160.83,267,645,649,719,775,754
Key1052,CORONA,RIVERSIDE,CA,92879,96.6,258.2,275,160.83,164.52,537,544,646,695,666
Key1053,ONTARIO,SAN BERNARDINO,CA,91761,298,463,673,357,359,716,737,961,1006,1261
Key1054,HEMET,RIVERSIDE,CA,92544,96.6,258.2,200,160.83,164.52,501,518,637,721,667
Key1055,SANTA BARBARA,SANTA BARBARA,CA,93101,96.6,427,457,160.83,164.52,568,605,659,664,672
Key1056,BAKERSFIELD,KERN,CA,93308,236,427,453,219,325,817,825,952,980,999
Key1057,BAKERSFIELD,KERN,CA,93305,444,280,385.85,219,354,514,563,727,794,739
Key1058,VENTURA,VENTURA,CA,93001,240,258.2,385.85,223,223,568,730,813,856,913
Key1059,RIVERSIDE,RIVERSIDE,CA,92501,258,409,559,258,258,732,823,984,1079,996
Key1061,RANCHO MIRAGE,RIVERSIDE,CA,92270,96.6,746,756,160.83,760,979,1030,1181,1201,1195
Key1070,MILPITAS,SANTA CLARA,CA,95035,96.6,258.2,385.85,160.83,164.52,309,317,734,620,480
Key1071,FREMONT,ALAMEDA,CA,94538,96.6,258.2,385.85,160.83,164.52,458,490,606,753,658
Key1099,CORTE MADERA,MARIN,CA,94925,96.6,18,108,160.83,164.52,412,417,555,601,629
Key1133,SAN FRANCISCO,SAN FRANCISCO,CA,94109,254,258.2,169,160.83,164.52,647,635,725,810,760
Key1146,WOODLAND,YOLO,CA,95695,96.6,258.2,385.85,160.83,164.52,411,420,486,594,504
Key1154,SAN DIEGO,SAN DIEGO,CA,92116,96.6,454,652,616,28,857,909,997,1071,1060
Key1155,POWAY,SAN DIEGO,CA,92064,96.6,534,721,160.83,426,826,826,973,1009,1028
Key1157,SAN DIEGO,SAN DIEGO,CA,92114,96.6,464,847,160.83,426,960,973,1024,1332,1064
Key1159,BONITA,SAN DIEGO,CA,91902,96.6,577,598,160.83,164.52,820,881,1025,1409,1064
Key1162,OCEANSIDE,SAN DIEGO,CA,92054,96.6,346,539,160.83,164.52,701,703,839,849,855
Key1169,SAN DIEGO,SAN DIEGO,CA,92101,96.6,258.2,213,160.83,164.52,324,805,868,876,885
Key1170,SAN DIEGO,SAN DIEGO,CA,92101,96.6,232,451,160.83,164.52,960,961,1154,1315,1161
Key1184,SAN DIEGO,SAN DIEGO,CA,92109,96.6,630,84,163,164.52,666,722,807,825,818
Key1204,LA JOLLA,SAN DIEGO,CA,92037,96.6,567,776,160.83,164.52,1190,1211,1382,1465,1395
Key1218,CHULA VISTA,SAN DIEGO,CA,91913,96.6,258.2,193,282,164.52,338,424,461,473,515
Key1225,ALAMEDA,ALAMEDA,CA,94502,96.6,304,346,160.83,255,756,766,940,1005,1018
Key1227,ORINDA,CONTRA COSTA,CA,94563,96.6,258.2,385.85,160.83,164.52,353,360,598,759,611
Key1230,SUNNYVALE,SANTA CLARA,CA,94089,96.6,258.2,385.85,160.83,164.52,987,993,1103,1439,1202
Key1231,PALO ALTO,SANTA CLARA,CA,94304,96.6,882,994,160.83,164.52,1035,1041,1117,1406,1194
Key1232,FAIRFIELD,SOLANO,CA,94533,96.6,258.2,385.85,160.83,164.52,861,876,1104,1261,1191
Key1236,SAN DIEGO,SAN DIEGO,CA,92127,96.6,527,577,160.83,164.52,843,804,876,885,897
Key1237,BOULEVARD,SAN DIEGO,CA,91905,96.6,581,871,945,1211,1151,1211,1273,1312,1277
Key1238,EL CAJON,SAN DIEGO,CA,92021,96.6,506,528,160.83,164.52,703,703,902,912,924
Key1240,VALLEY CENTER,SAN DIEGO,CA,92082,96.6,556,731,160.83,164.52,955,958,1074,1067,1114
Key1241,EL CAJON,SAN DIEGO,CA,92020,96.6,583,583,160.83,164.52,848,848,895,904,982
Key1246,DULZURA,SAN DIEGO,CA,91917,96.6,519,675,160.83,426,818,834,941,1009,1009
Key1247,SAN MARCOS,SAN DIEGO,CA,92069,96.6,258.2,443,160.83,164.52,948,952,1030,1030,1060
Key1248,EL CAJON,SAN DIEGO,CA,92020,96.6,547,654,160.83,164.52,813,703,855,855,882
Key1249,CARLSBAD,SAN DIEGO,CA,92008,96.6,607,873,160.83,424,1038,1055,1147,1253,1154
Key1250,SAN DIEGO,SAN DIEGO,CA,92116,96.6,267,736,37,37,883,884,1007,1071,1059
Key1260,JAMUL,SAN DIEGO,CA,91935,96.6,258.2,1092,160,164.52,1257,1257,1314,1314,1342
Key1261,SAN DIEGO,SAN DIEGO,CA,92104,96.6,258.2,386,160.83,164.52,701,762,875,876,909
Key1272,MADERA,MADERA,CA,93638,96.6,258.2,385.85,160.83,164.52,280,283,371,572,452
Key1273,LIVINGSTON,MERCED,CA,95334,96.6,258.2,385.85,160.83,164.52,146,139,259,572,431
Key1274,DEL REY OAKS,MONTEREY,CA,93940,96.6,258.2,385.85,160.83,164.52,539,495,615,726,672
Key1299,BAKERSFIELD,KERN,CA,93308,235,354,526,176,176,735,767,840,856,892
Key1343,CLOVIS,FRESNO,CA,93612,221,450,616,261,261,652,674,813,870,858
Key1369,TULARE,TULARE,CA,93274,221,326,564,262,262,624,626,703,808,750
Key1370,ELK GROVE,SACRAMENTO,CA,95624,198,513,626,252,309,704,739,840,913,931
Key1397,SAN FRANCISCO,SAN FRANCISCO,CA,94107,96.6,462,370,160.83,164.52,503,482,623,708,654
Key1399,KERMAN,FRESNO,CA,93630,96.6,183,560,160.83,164.52,611,623,692,780,777
Key1400,MODESTO,STANISLAUS,CA,95351,96.6,258.2,385.85,160.83,164.52,388,394,471,556,519
Key1401,NAPA,NAPA,CA,94558,96.6,258.2,385.85,160.83,164.52,548,555,736,787,765
Key1402,MERCED,MERCED,CA,95348,96.6,388,469,160.83,164.52,559,568,625,694,672
Key1403,PORTERVILLE,TULARE,CA,93257,96.6,222,222,160.83,164.52,517,572,644,775,709
Key1404,OAKLAND,ALAMEDA,CA,94607,96.6,538,576,160.83,164.52,591,594,660,849,672
Key1409,PETALUMA,SONOMA,CA,94954,359,700,769,425,516,943,950,1017,1155,1065
Key1411,RICHMOND,CONTRA COSTA,CA,94806,96.6,390,570,160.83,164.52,780,787,866,882,885
Key1412,RICHMOND,CONTRA COSTA,CA,94803,96.6,438,489,160.83,299,704,704,803,924,850
Key1413,BERKELEY,ALAMEDA,CA,94709,96.6,399,565,160.83,237,699,700,782,795,801
Key1416,LINCOLN,PLACER,CA,95648,96.6,147,202,160.83,164.52,544,544,636,767,678
Key1417,AROMAS,MONTEREY,CA,95004,553,631,723,425,463,912,937,1043,1176,1125
Key1419,SEASIDE,MONTEREY,CA,93955,96.6,406,637,160.83,164.52,654,658,752,849,764
Key1420,SAN JOSE,SANTA CLARA,CA,95112,96.6,250,250,250,250,591,601,703,826,754
Key1421,CONCORD,CONTRA COSTA,CA,94521,96.6,361,487,160.83,188,692,699,752,847,782
Key1422,PACIFIC GROVE,MONTEREY,CA,93950,96.6,398,570,208,208,595,598,671,791,727
Key1424,COLFAX,PLACER,CA,95713,96.6,354,354,160.83,164.52,462,476,566,634,609
Key1425,SANTA ROSA,SONOMA,CA,95409,96.6,86,135,160.83,164.52,620,634,721,756,751
Key1426,THE SEA RANCH,SONOMA,CA,95497,96.6,258.2,199,160.83,164.52,685,626,966,1025,970
Key1427,SANTA ROSA,SONOMA,CA,95404,96.6,258.2,385.85,24,24,389,399,593,636,633
Key1428,REDWOOD CITY,SAN MATEO,CA,94062,96.6,258.2,385.85,160.83,164.52,566,572,675,812,692
Key1429,NOVATO,MARIN,CA,94945,96.6,258.2,55,160.83,164.52,887,918,1065,1104,1090
Key1433,PACIFIC PALISADES,LOS ANGELES,CA,90272,96.6,328,689,160.83,164.52,812,861,1071,1102,1145
Key1439,HAWTHORNE,LOS ANGELES,CA,90250,96.6,465,578,382,388,662,693,825,838,893
Key1452,SAN FRANCISCO,SAN FRANCISCO,CA,94109,381,186,556,160.83,164.52,824,812,840,878,847
Key1453,SAN FRANCISCO,SAN FRANCISCO,CA,94102,307,456,666,360,360,813,806,913,1025,948
Key1459,SAN FRANCISCO,SAN FRANCISCO,CA,94115,204,258.2,232,160.83,164.52,402,338,479,543,523
Key1462,SAN FRANCISCO,SAN FRANCISCO,CA,94133,143,258.2,385.85,160.83,164.52,308,353,537,614,581
Key1463,SAN FRANCISCO,SAN FRANCISCO,CA,94123,307,258.2,204,160.83,164.52,784,777,867,913,867
Key1464,SAN FRANCISCO,SAN FRANCISCO,CA,94123,307,169,682,353,216,828,813,889,1015,898
Key1465,SAN FRANCISCO,SAN FRANCISCO,CA,94105,201,359,490,247,132,617,617,835,938,849
Key1493,ALAMEDA,ALAMEDA,CA,94501,96.6,190,438,50,190,867,879,1043,1189,1092
Key1609,BAKERSFIELD,KERN,CA,93313,57,245,305,145,147,384,433,523,543,559
Key1617,POTRERO,SAN DIEGO,CA,91963,96.6,258.2,931,160.83,164.52,931,1011,1086,1554,1135
Key1618,SAN DIEGO,SAN DIEGO,CA,92121,96.6,730,752,160.83,716,902,902,1002,1039,1042
Key1679,HESPERIA,SAN BERNARDINO,CA,92345,141,370,665,232,253,971,980,1114,1230,1402
Key1680,SANTA CLARITA,LOS ANGELES,CA,91350,96.6,258.2,385.85,160.83,164.52,336,385,466,473,488
Key1681,LA CANADA,LOS ANGELES,CA,91011,28,180,244,90,105,491,550,873,809,956
Key1682,RIVERSIDE,RIVERSIDE,CA,92505,28,196,245,104,141,389,393,444,764,460
Key1685,NEWPORT BEACH,ORANGE,CA,92663,51,188,405,66,56,460,481,705,724,718
Key1716,SALINAS,MONTEREY,CA,93901,115,194,257,194,188,298,296,408,486,453
Key1776,ATHERTON,SAN MATEO,CA,94027,221,264,349,79,191,404,404,532,591,550
Key1777,SAN FRANCISCO,SAN FRANCISCO,CA,94116,412,366,910,160.83,274,1045,1050,1092,1135,1140
Key1778,REDDING,SHASTA,CA,96001,268,258.2,1,160.83,164.52,345,361,490,533,494
Key1779,FAIRFIELD,SOLANO,CA,94533,481,210,308,413,233,777,801,971,1036,1027
Key1780,SUNNYVALE,SANTA CLARA,CA,94089,237,4,42,160.83,164.52,130,172,521,515,292
Key1781,MOUNTAIN VIEW,SANTA CLARA,CA,94043,92,345,366,120,133,451,496,601,668,686
Key1782,SAN FRANCISCO,SAN FRANCISCO,CA,94131,597,379,681,379,300,849,849,911,1015,946
Key1889,LA HONDA,SAN MATEO,CA,94020,45,32,32,32,32,115,115,195,439,235
Key1890,WOODSIDE,SAN MATEO,CA,94062,45,56,96,32,32,158,158,210,439,249
Key1927,SANTA CLARA,SANTA CLARA,CA,95054,38,269,287,130,130,403,442,511,610,562
Key1928,OAKLAND,ALAMEDA,CA,94612,31,488,623,116,274,690,711,795,814.81,812
Key1937,NEEDLES,SAN BERNARDINO,CA,92363,96.6,156,312,160.83,164.52,660,689,1011,1098,1654
Key2037,SAN FRANCISCO,SAN FRANCISCO,CA,94111,96.6,723,744,862,863,1112,1112,1169,1212,1172
Key2077,ALAMEDA,ALAMEDA,CA,94501,7,64,225,13,13,296,304,388,433,414
Key2091,ALAMEDA,ALAMEDA,CA,94501,7,63,225,13,27,283,296,379,413,413
Key2112,CLEARLAKE,LAKE,CA,95422,97,160,461,108,117,801,839,946,976,986
Key2127,LIVERMORE,ALAMEDA,CA,94551,7,36,237,27,27,640,296,331,750,336
Key2181,SAN MARCOS,SAN DIEGO,CA,92078,1,6,167,373,1,226,224,373,270,237
Key2186,HILLSBOROUGH,SAN MATEO,CA,94010,65,435,573,103,124,643,657,695,734,749
Key2187,MARTINEZ,CONTRA COSTA,CA,94553,298,524,605,345,356,1045,1092,1179,1238,1250
Key2243,SAN DIEGO,SAN DIEGO,CA,92106,96.6,258.2,289,719,164.52,912,981,1078,1090,1087
Key2244,SAN DIEGO,SAN DIEGO,CA,92122,367,68,126,96,367,461,514,579,588,599
Key2245,VALLEY CENTER,SAN DIEGO,CA,92082,96.6,258.2,301,752,164.52,700,700,808,906,910
Key2250,SAN DIEGO,SAN DIEGO,CA,92101,367,117,278,24,367,404,420,488,558,496
Key2251,OCEANSIDE,SAN DIEGO,CA,92056,96.6,281,401,719,462,785,785,954,972,986
Key2255,FALLBROOK,SAN DIEGO,CA,92028,96.6,518,777,752,164.52,809,864,987,1005,1018
Key2256,SAN DIEGO,SAN DIEGO,CA,92101,96.6,258.2,385.85,752,164.52,614,637,805,808,927
Key2257,VISTA,SAN DIEGO,CA,92084,96.6,258.2,183,719,164.52,519,519,887,910,917
Key2280,BAKERSFIELD,KERN,CA,93301,33,133,162,64,78,348,397,561,698,573
Key2281,BAKERSFIELD,KERN,CA,93309,33,162,246,64,65,313,369,484,538,519
Key2282,DELANO,KERN,CA,93215,33,258.2,385.85,60,60,225,287,413,454,462
Key2283,MOORPARK,VENTURA,CA,93021,33,224,273,77,77,400,425,545,673,715
Key2284,LOS ANGELES,LOS ANGELES,CA,90044,33,133,307,64,64,538,732,853,979,882
Key2383,NATIONAL CITY,SAN DIEGO,CA,91950,64,109,302,208,38,349,349,449,449,456
Key2425,VISALIA,TULARE,CA,93292,52,213,248,85,113,442,485,562,688,822
Key2488,SAN DIEGO,SAN DIEGO,CA,92113,29,258.2,34,160.83,164.52,205,219,356,492,377
Key2531,RANCHO PALOS VERDES,LOS ANGELES,CA,90275,48,48,276,48,48,380,460,527,1013,627
Key2532,ONTARIO,SAN BERNARDINO,CA,91761,85,195,316,119,130,341,390,551,572,565
Key2533,SAN BERNARDINO,SAN BERNARDINO,CA,92401,27,270,407,96,221,489,539,700,721,774
Key2534,SAN BERNARDINO,SAN BERNARDINO,CA,92411,27,214,307,90,115,455,493,602,809,635
Key2535,LOS ALAMITOS,ORANGE,CA,90720,96.6,258.2,385.85,160.83,164.52,125,193,358,384,363
Key2537,SANTA CLARITA,LOS ANGELES,CA,91350,96.6,155,562,47,47,980,1069,1239,1246,1302
Key2538,CATHEDRAL CITY,RIVERSIDE,CA,92234,28,215,276,99,116,456,490,596,671,713
Key2539,TUJUNGA,LOS ANGELES,CA,91042,96.6,258.2,385.85,160.83,164.52,389,389,449,456,495
Key2540,IRVINE,ORANGE,CA,92602,27,258.2,385.85,103,103,266,320,413,452,459
Key2541,MANHATTAN BEACH,LOS ANGELES,CA,90266,96.6,248,280,160.83,164.52,503,523,600,612,683
Key2543,BALDWIN PARK,LOS ANGELES,CA,91706,114,196,434,148,149,640,668,801,853,938
Key2544,ALISO VIEJO,ORANGE,CA,92656,85,260,386,142,181,548,577,723,821,754
Key2545,MORENO VALLEY,RIVERSIDE,CA,92555,84,218,293,167,156,401,491,524,572,624
Key2546,SANTA BARBARA,SANTA BARBARA,CA,93108,64,65,65,64,64,113,113,125,166,163
Key2547,LAKE ELSINORE,RIVERSIDE,CA,92530,89,196,246,141,145,371,446,530,572,587
Key2549,SAN DIMAS,LOS ANGELES,CA,91773,96.6,258.2,385.85,160.83,164.52,140,156,289,350,290
Key2550,SAN BERNARDINO,SAN BERNARDINO,CA,92410,89,196,365,112,131,474,509,639,719,678
Key2551,RIVERSIDE,RIVERSIDE,CA,92503,89,226,473,114,145,561,579,744,824,763
Key2552,POMONA,LOS ANGELES,CA,91768,85,226,407,146,147,474,530,667,740,680
Key2553,RANCHO CUCAMONGA,SAN BERNARDINO,CA,91739,85,258,299,153,146,565,582,723,744,856
Key2554,POMONA,LOS ANGELES,CA,91766,89,226,462,148,165,589,600,716,937,831
Key2555,FONTANA,SAN BERNARDINO,CA,92335,89,258.2,385.85,113,121,552,600,792,824,803
Key2556,ANAHEIM,ORANGE,CA,92808,89,230,254,119,119,475,506,614,681,638
Key2581,WOODLAKE,TULARE,CA,93286,96.6,258.2,385.85,160.83,164.52,227,230,269,602,429
Key2593,LAFAYETTE,CONTRA COSTA,CA,94549,96.6,258.2,385.85,160.83,164.52,543,550,779,990,825
Key2745,ALISO VIEJO,ORANGE,CA,92656,46,160,276,46,46,328,423,523,550,538
Key2746,WOODLAND HILLS,LOS ANGELES,CA,91367,46,46,46,46,46,346,360,425,427,476
Key2747,CEDARPINES PARK,SAN BERNARDINO,CA,92322,116,251,251,194,199,347,392,592,633,1067
Key2748,CORONA,RIVERSIDE,CA,92882,21,126,253,56,59,370,424,559,766,581
Key2754,PLACENTIA,ORANGE,CA,92870,25,130,321,53,54,418,445,630,682,689
Key2795,SAN DIEGO,SAN DIEGO,CA,92124,68,18,106,68,35,217,218,330,350,355
Key2846,SAN FRANCISCO,SAN FRANCISCO,CA,94115,597,805,917,365,366,1015,1025,1109,1135,1140
Key2847,SAN FRANCISCO,SAN FRANCISCO,CA,94116,428,429,533,554,666,724,718,786,912,830
Key2865,ESCONDIDO,SAN DIEGO,CA,92029,29,258.2,34,160.83,164.52,243,268,369,492,401
Key2867,FONTANA,SAN BERNARDINO,CA,92335,96.6,258.2,385.85,628,164.52,180,222,610,457,456
Key2868,HUNTINGTON BEACH,ORANGE,CA,92647,96.6,258.2,385.85,374,164.52,154,289,574,1190,655
Key2869,LOS ANGELES,LOS ANGELES,CA,90048,222,186,285,333,123,365,487,554,578,635
Key2881,SYLMAR,LOS ANGELES,CA,91342,96.6,258.2,385.85,350,164.52,392,506,665,667,690
Key2891,LOS ANGELES,LOS ANGELES,CA,90046,96.6,258.2,385.85,502,164.52,635,761,804,811,849
Key2892,CORONA,RIVERSIDE,CA,92880,505,505,505,841,505,611,621,699,733,785
Key2893,SAN LUIS OBISPO,SAN LUIS OBISPO,CA,93405,733,351,353,358,715,600,645,837,848,891
Key2894,RIVERSIDE,RIVERSIDE,CA,92507,96.6,258.2,306,859,164.52,495,548,720,796,790
Key2895,LOS ANGELES,LOS ANGELES,CA,90035,96.6,258.2,385.85,624,164.52,886,894,960,1005,1037
Key2907,NORTH HILLS,LOS ANGELES,CA,91343,33,133,404,64,64,560,1107,1247,1517,1307
Key2908,LOS ANGELES,LOS ANGELES,CA,90022,23,101,304,46,47,836,853,1012,1048,1045
Key2911,UPLAND,SAN BERNARDINO,CA,91786,23,187,355,85,111,1158,1171,1319,814.81,1522
Key2926,EAST LOS ANGELES,LOS ANGELES,CA,90022,18,272,488,106,110,581,602,670,814.81,686
Key2939,LA HONDA,SAN MATEO,CA,94020,45,32,32,32,32,115,115,195,1100,235
Key2940,WOODSIDE,SAN MATEO,CA,94062,45,56,96,32,32,158,158,210,734,286
Key3007,CITY OF INDUSTRY,LOS ANGELES,CA,91789,219,219,186,219,219,191,198,964,520,497
Key3009,PALM DESERT,RIVERSIDE,CA,92260,169,195,195,195,195,586,603,706,810,763
Key3010,SUN VALLEY,LOS ANGELES,CA,91352,219,219,219,219,219,212,287,700,793,910
Key3011,PALM DESERT,RIVERSIDE,CA,92260,175,350,439,201,201,613,627,712,816,791
Key3012,BAKERSFIELD,KERN,CA,93308,19,315,315,34,65,310,317,404,499,520
Key3028,ESCONDIDO,SAN DIEGO,CA,92025,43,135,253,62,35,363,370,469,504,502
Key3029,FOLSOM,SACRAMENTO,CA,95630,96.6,258.2,385.85,160.83,164.52,224,272,408,437,420
Key3223,CALIFORNIA CITY,KERN,CA,93505,33,189,218,89,132,313,355,511,538,518
Key3274,CHULA VISTA,SAN DIEGO,CA,91911,31,301,422,182,56,714,764,882,972,911
Key3279,CANOGA PARK,LOS ANGELES,CA,91304,23,193,559,97,97,1087,1116,1202,1376,1215
Key3317,SAN FRANCISCO,SAN FRANCISCO,CA,94107,96.6,258.2,385.85,160.83,164.52,639.71,682.24,21,126,89
Key3318,SAN FRANCISCO,SAN FRANCISCO,CA,94118,96.6,258.2,22,160.83,164.52,148,156,240,268,271
Key3349,OAKLAND,ALAMEDA,CA,94621,99,218,314,111,111,494,522,750,755,761
Key3484,TUJUNGA,LOS ANGELES,CA,91042,88,75,77,319,85,154,446,540,561,691
Key3488,BAKERSFIELD,KERN,CA,93306,33,162,255,63,65,438,473,589,764,678
Key3491,EL CENTRO,IMPERIAL,CA,92243,1148,136,1991,160.83,1148,2023,2023,2111,2221,2117
Key3507,IRVINE,ORANGE,CA,92604,96.6,258.2,385.85,160.83,164.52,371,378,465,814.81,576
Key3578,SAN DIMAS,LOS ANGELES,CA,91773,89,412,516,298,305,677,720,783,1147,794
Key3617,SACRAMENTO,SACRAMENTO,CA,95834,96.6,182,317,160.83,164.52,570,626,717,853,776
Key3618,SAN FRANCISCO,SAN MATEO,CA,94128,96.6,258.2,385.85,160.83,164.52,547,566,703,763,778
Key3620,DALY CITY,SAN MATEO,CA,94014,96.6,258.2,385.85,160.83,164.52,514,518,738,813,800
Key3621,EL DORADO HILLS,EL DORADO,CA,95762,96.6,258.2,385.85,160.83,164.52,681,678,715,832,808
Key3624,REDDING,SHASTA,CA,96003,25,208,208,105,116,412,430,543,560,572
Key3651,CARLSBAD,SAN DIEGO,CA,92009,96.6,142,306,160.83,36,486,494,587,608,601
Key3652,BRAWLEY,IMPERIAL,CA,92227,64,201,208,201,78,330,354,629,643,866
Key3656,CAMPO,SAN DIEGO,CA,91906,96.6,321,528,160.83,52,643,643,744,1050,793
Key3661,SAN DIEGO,SAN DIEGO,CA,92110,64,146,361,208,75,446,459,573,630,575
Key3673,ESCONDIDO,SAN DIEGO,CA,92027,64,147,238,208,38,393,375,494,550,501
Key3674,VALLEY CENTER,SAN DIEGO,CA,92082,64,215,288,238,179,435,456,509,610,557
Key3712,BURBANK,LOS ANGELES,CA,91506,96.6,129,129,160.83,164.52,238,252,365,814.81,381
Key3721,CITY OF INDUSTRY,LOS ANGELES,CA,91746,219,219,186,219,219,314,401,873,1372,1055
Key3722,BEVERLY HILLS,LOS ANGELES,CA,90210,285,626,668,442,442,1468,1499,1605,1857,1618
Key3723,BEVERLY HILLS,LOS ANGELES,CA,90211,96.6,611,626,540,529,939,997,1089,1205,1201
Key3737,PARADISE,BUTTE,CA,95969,198,384,429,209,260,549,556,654,757,758
Key3738,EL DORADO HILLS,EL DORADO,CA,95762,198,325,325,184,196,611,618,664,792,762
Key3739,CASTELLA,SHASTA,CA,96017,96.6,465,513,219,261,611,618,685,783,762
Key3860,LA MIRADA,LOS ANGELES,CA,90638,107,296,300,209,219,556,605,702,843,711
Key3861,EL SEGUNDO,LOS ANGELES,CA,90245,60,237,636,92,92,725,755,841,907,858
Key3865,ORANGE,ORANGE,CA,92868,27,275,672,71,162,843,1242,1375,1492,1392
Key3866,CHATSWORTH,LOS ANGELES,CA,91311,64,217,412,91,127,727,566,662,1373,679
Key3867,DOWNEY,LOS ANGELES,CA,90242,96.6,258.2,385.85,555,164.52,247,398,601,873,968
Key3868,PLAYA DEL REY,LOS ANGELES,CA,90293,490,506,861,692,380,1490,1491,1515,1240,1491
Key3869,SANTA BARBARA,SANTA BARBARA,CA,93108,33,33,126,33,33,329,341,387,408,420
Key3870,LONG BEACH,LOS ANGELES,CA,90815,36,258.2,385.85,1082,164.52,398,1078,980,1036,1460
Key3871,RIVERSIDE,RIVERSIDE,CA,92518,96.6,67,314,1050,164.52,1254,1306,1432,1453,1581
Key3872,CLAREMONT,LOS ANGELES,CA,91711,64,258,382,91,235,414,501,610,720,641
Key4083,PINOLE,CONTRA COSTA,CA,94564,241,282,384,241,231,707,860,1109,1142,1148
Key4084,SAN JOSE,SANTA CLARA,CA,95125,348,328,717,192,195,873,1167,1225,1300,1300
Key4085,HAYWARD,ALAMEDA,CA,94542,481,613,826,381,451,1748,1683,1848,1867,1873
Key4086,MENLO PARK,SAN MATEO,CA,94025,14,414,483,344,360,563,563,575,601,583
Key4087,HALF MOON BAY,SAN MATEO,CA,94019,70,478,756,231,264,859,880,954,1155,1008
Key4088,PLEASANT HILL,CONTRA COSTA,CA,94523,97,486,601,122,217,779,1105,1217,1235,1295
Key4090,SAN FRANCISCO,SAN FRANCISCO,CA,94123,204,258.2,785,160.83,164.52,946,956,1093,1198,1186
Key4091,LA JOLLA,SAN DIEGO,CA,92037,96.6,522,627,160.83,164.52,1735,1739,1847,2021,1868
Key4092,SAN DIEGO,SAN DIEGO,CA,92101,96.6,371,1193,178,234,1585,1598,1687,1786,1709
Key4095,MODESTO,STANISLAUS,CA,95351,96.6,282,282,279,279,727,795,944,1047,1152
Key4096,SAN FRANCISCO,SAN FRANCISCO,CA,94105,204,794,960,160.83,711,1136,1314,1445,1482,1489
Key4097,CLAYTON,CONTRA COSTA,CA,94517,359,643,888,428,485,988,1224,1400,1681,1514
Key4098,SACRAMENTO,SACRAMENTO,CA,95819,198,477,518,238,345,1379,1379,1473,1526,1479
Key4099,EL CENTRO,IMPERIAL,CA,92243,31,268,385,168,45,503,867,960,1003,981
Key4101,MORGAN HILL,SANTA CLARA,CA,95037,96.6,258.2,70,160.83,164.52,591,596,1189,976,1432
Key4102,ALBANY,ALAMEDA,CA,94706,96.6,301,578,160.83,188,817,829,1026,1046,1032
Key4103,SANTA CLARA,SANTA CLARA,CA,95054,102,320,328,221,224,496,504,616,644,678
Key4104,SANTA CLARA,SANTA CLARA,CA,95054,102,385,469,354,354,622,651,720,732,735
Key4105,SELMA,FRESNO,CA,93662,52,213,213,179,113,452,462,850,884,878
Key4108,SAN JOSE,SANTA CLARA,CA,95134,96.6,874,1117,677,714,1194,1203,1266,1364,1286
Key4109,SANTA CLARA,SANTA CLARA,CA,95054,96.6,1167,1366,415,419,1398,1433,1517,1538,1546
Key4110,IMPERIAL,IMPERIAL,CA,92251,31,122,316,168,44,423,455,581,610,799
Key4112,STRATHMORE,TULARE,CA,93267,392,603,740,428,458,836,858,942,1089,1093
Key4115,SAN DIEGO,SAN DIEGO,CA,92110,96.6,258.2,385.85,160.83,164.52,775,790,819,975,923
Key4118,SALINAS,MONTEREY,CA,93901,96.6,410,635,209,209,768,787,1048,1055,1215
Key4149,ALPINE,SAN DIEGO,CA,91901,125,149,416,96,15,521,708,799,840,829
Key4150,SAN DIEGO,SAN DIEGO,CA,92109,96.6,258.2,771,160.83,164.52,1550,1582,1611,1648,1617
Key4152,SAN DIEGO,SAN DIEGO,CA,92110,11,98,120,46,46,358,508,629,671,638
Key4256,LOS ANGELES,LOS ANGELES,CA,90034,96.6,473,609,160.83,353,730,784,884,976,941
Key4257,FORT IRWIN,SAN BERNARDINO,CA,92310,247,258.2,385.85,214,349,1210,1211,1219,1276,1237
Key4267,FRESNO,FRESNO,CA,93722,36,125,176,55,86,736,324,393,814.81,794
Key4275,NEWARK,ALAMEDA,CA,94560,19,10,41,3,3,252,280,382,448,418
Key4388,SOUTH SAN FRANCISCO,SAN MATEO,CA,94080,148,625,696,372,394,1053,1225,1289,1302,1327
Key4389,SAN FRANCISCO,SAN FRANCISCO,CA,94107,96.6,84,784,160.83,164.52,791,808,1201,1237,1239
Key4405,OAKLAND,ALAMEDA,CA,94610,96.6,732,1322,732,732,1444,1491,1729,1766,1739
Key4412,PLEASANT HILL,CONTRA COSTA,CA,94523,96.6,110,173,160.83,164.52,259,274,435,474,453
Key4413,JULIAN,SAN DIEGO,CA,92036,11,229,284,74,67,468,524,585,814.81,597
Key4481,SAN DIEGO,SAN DIEGO,CA,92101,31,150,478,205,71,784,790,869,941,881
Key4500,DANVILLE,CONTRA COSTA,CA,94526,49,338,665,183,196,995,1009,1067,1128,1081
Key4512,PETALUMA,SONOMA,CA,94954,7,247,385,160,170,582,596,679,694,724
Key4513,EL DORADO HILLS,EL DORADO,CA,95762,221,270,354,208,174,696,1186,1235,1249,1256
Key4514,DALY CITY,SAN MATEO,CA,94015,221,789,885,660,660,1098,1173,1426,1455,1446
Key4560,OXNARD,VENTURA,CA,93030,96.6,258.2,385.85,160.83,164.52,639.71,682.24,798.19,814.81,455
Key4564,GARDENA,LOS ANGELES,CA,90247,33,158,302,66,67,368,389,526,686,543
Key4565,IRVINE,ORANGE,CA,92612,45,162,281,61,95,343,378,491,515,504
Key4566,SAN BERNARDINO,SAN BERNARDINO,CA,92408,27,270,407,96,116,573,587,732,808,812
Key4567,BAKERSFIELD,KERN,CA,93304,33,312,314,57,64,229,287,442,454,462
Key4568,BAKERSFIELD,KERN,CA,93307,33,194,309,84,85,407,452,624,753,644
Key4569,ANAHEIM,ORANGE,CA,92801,40,154,200,92,135,323,368,512,651,525
Key4570,COVINA,LOS ANGELES,CA,91723,89,197,260,130,155,366,400,596,811,828
Key4571,DANA POINT,ORANGE,CA,92629,50,153,396,50,49,455,486,661,784,672
Key4572,CHINO,SAN BERNARDINO,CA,91708,96.6,258.2,385.85,160.83,164.52,639.71,682.24,798.19,814.81,111
Key4658,FREMONT,ALAMEDA,CA,94536,13,19,41,13,17,179,111,192,271,201
Key4659,NEWPORT BEACH,ORANGE,CA,92657,36,77,117,14,13,154,172,228,272,236
Key4660,SANTA CRUZ,SANTA CRUZ,CA,95060,24,269,521,214,239,681,1164,1395,1514,1423
Key4661,SAN FRANCISCO,SAN FRANCISCO,CA,94117,96.6,258.2,385.85,160.83,164.52,102,221,285,356,314
Key4662,SACRAMENTO,SACRAMENTO,CA,95825,98,262,374,170,178,1166,1177,1236,1242,1243
Key4702,LONG BEACH,LOS ANGELES,CA,90840,649,783,783,1229,749,1404,1497,1642,1771,1666
Key4703,SANTA ANA,ORANGE,CA,92704,96.6,140,210,160.83,59,445,506,599,666,606
Key4725,SANTA YSABEL,SAN DIEGO,CA,92070,73,125,249,73,53,539,589,658,814.81,669
Key4729,RANCHITA,SAN DIEGO,CA,92066,73,53,53,73,53,531,536,610,814.81,673
Key4745,OCEANSIDE,SAN DIEGO,CA,92054,96.6,1051,1403,868,868,1877,1965,2123,2346,2140
Key4750,TRACY,SAN JOAQUIN,CA,95304,221,563,569,372,414,809,872,1240,1290,1324
Key4756,IRVINE,ORANGE,CA,92603,96.6,359,359,70,64,1255,1283,1409,1444,1440
Key4859,MISSION VIEJO,ORANGE,CA,92691,28,182,512,97,97,1021,1157,1386,1504,1415
Key4860,GARDEN GROVE,ORANGE,CA,92845,23,744,830,128,128,1118,1140,1231,1320,1256
Key4861,IRVINE,ORANGE,CA,92620,23,359,359,125,146,1192,1290,1389,1563,1494
Key4862,SAN JACINTO,RIVERSIDE,CA,92583,23,167,237,60,96,929,965,1101,1588,1109
Key4863,IRVINE,ORANGE,CA,92604,283,468,678,291,291,1188,1196,1365,1567,1405
Key4864,BURBANK,LOS ANGELES,CA,91501,27,361,461,188,188,641,1208,1334,1371,1365
Key4866,LAWNDALE,LOS ANGELES,CA,90260,23,135,226,58,58,851,902,1063,1419,1090
Key4868,SAN JUAN CAPISTRANO,ORANGE,CA,92675,40,195,314,78,92,1271,1391,1607,814.81,1778
Key4869,ONTARIO,SAN BERNARDINO,CA,91761,200,327,856,213,213,998,1395,1453,1522,1448
Key4871,BAKERSFIELD,KERN,CA,93312,23,167,985,54,54,1158,1192,1312,1473,1328
Key4872,MONTCLAIR,SAN BERNARDINO,CA,91763,23,124,403,48,58,731,898,1186,1304,1201
Key4874,COMPTON,LOS ANGELES,CA,90222,219,1268,1419,219,219,1616,1633,1717,2009,1730
Key4875,NORWALK,LOS ANGELES,CA,90650,110,878,1103,334,618,1262,1269,1305,814.81,1319
Key4876,BEVERLY HILLS,LOS ANGELES,CA,90210,163,309,800,418,197,1680,1699,1792,1938,1826
Key4877,LOS ANGELES,LOS ANGELES,CA,90027,547,547,547,547,547,1259,1294,1398,1475,1425
Key4879,PALM DESERT,RIVERSIDE,CA,92260,23,225,382,89,114,970,1038,1213,1364,1223
Key4880,MONTEREY PARK,LOS ANGELES,CA,91754,23,802,989,514,484,1346,1389,1556,814.81,1578
Key4885,INGLEWOOD,LOS ANGELES,CA,90302,240,1098,1291,973,977,1918,1929,2081,814.81,2149
Key4886,SAN JACINTO,RIVERSIDE,CA,92582,23,221,298,59,93,1122,1236,1368,814.81,1440
Key4888,RIVERSIDE,RIVERSIDE,CA,92503,63,196,1654,549,65,1809,1898,1956,814.81,1956
Key4893,MURRIETA,RIVERSIDE,CA,92562,23,1281,1382,155,790,1426,1444,1563,814.81,1586
Key4894,SHERMAN OAKS,LOS ANGELES,CA,91411,23,482,1251,471,380,1350,1423,1532,814.81,1543
Key4895,LA CRESCENTA,LOS ANGELES,CA,91214,23,166,213,75,88,347,1082,1193,1314,1228
Key4897,LOS ANGELES,LOS ANGELES,CA,90028,427,954,954,513,513,1646,1668,1828,814.81,2017
Key4904,SANTA MARIA,SANTA BARBARA,CA,93455,21,266,419,70,146,1641,1644,1767,814.81,1786
Key4905,SANTA MONICA,LOS ANGELES,CA,90405,33,1134,1236,90,805,1488,1519,1723,814.81,1748
Key4906,LOMA LINDA,SAN BERNARDINO,CA,92354,32,182,245,47,82,885,641,810,814.81,887
Key4919,LOS ANGELES,LOS ANGELES,CA,90003,23,319,755,257,271,1000,1018,1140,1412,1230
Key4920,OXNARD,VENTURA,CA,93030,33,134,287,56,70,1068,1089,1237,1400,1308
Key4921,CANOGA PARK,LOS ANGELES,CA,91304,240,407,826,223,406,1499,1526,1635,1919,1708
Key4922,CORONA,RIVERSIDE,CA,92882,89,356,865,214,258,1300,1301,1374,1483,1412
Key4929,SANTA FE SPRINGS,LOS ANGELES,CA,90670,23,142,282,75,85,409,1011,1151,1287,1168
Key4930,LOS ANGELES,LOS ANGELES,CA,90015,638,874,1071,751,792,1717,1730,1841,814.81,1855
Key4931,DESERT HOT SPRINGS,RIVERSIDE,CA,92240,234,922,1061,692,695,1559,1560,1769,2050,1789
Key4932,TARZANA,LOS ANGELES,CA,91356,33,218,497,99,181,568,1103,1244,1392,1302
Key4933,TUSTIN,ORANGE,CA,92780,240,954,1062,883,883,1227,1498,1677,1712,1694
Key4934,INGLEWOOD,LOS ANGELES,CA,90304,23,164,368,61,94,409,902,1032,1438,1047
Key4935,MOUNTAIN VIEW,SANTA CLARA,CA,94043,96.6,258.2,385.85,160.83,164.52,446,410,498,767,517
Key4936,SAN FRANCISCO,SAN FRANCISCO,CA,94111,96.6,258.2,385.85,160.83,164.52,639.71,166,301,356,344
Key5044,SANTA CLARA,SANTA CLARA,CA,95054,96.6,671,672,670,670,1294,1302,1385,1389,1389
Key5135,ESCONDIDO,SAN DIEGO,CA,92025,367,1158,1158,96,423,1158,1163,1246,1336,1260
Key5170,ROWLAND HEIGHTS,LOS ANGELES,CA,91748,63,220,420,128,135,597,672,804,841,828
Key5182,EASTVALE,RIVERSIDE,CA,92880,21,648,943,690,398,1293,1306,1421,1649,1439
Key5263,HAYWARD,ALAMEDA,CA,94544,434,560,626,491,526,736,650,650,694,671
Key5264,MENLO PARK,SAN MATEO,CA,94025,224,300,548,156,161,757,649,786,820,793
Key5290,SANTA CLARITA,LOS ANGELES,CA,91355,79,326,452,96,110,613,625,737,814.81,746
Key5295,SAN FRANCISCO,SAN FRANCISCO,CA,94118,96.6,258.2,385.85,160.83,164.52,639.71,256,372,426,406
Key5333,PORTOLA VALLEY,SAN MATEO,CA,94028,64,589,650,392,323,1184,1197,1245,1298,1304
Key5384,LOS ANGELES,LOS ANGELES,CA,90045,24,19,174,38,28,300,313,383,814.81,412
Key5444,SAN LORENZO,ALAMEDA,CA,94580,42,203,417,58,58,1134,1142,1184,1231,1218
Key5486,SAN DIEGO,SAN DIEGO,CA,92129,96.6,102,132,160.83,164.52,300,318,427,587,447
Key5489,FREMONT,ALAMEDA,CA,94538,34,687,699,448,448,779,824,904,975,962
Key5491,FOLSOM,SACRAMENTO,CA,95630,5,71,89,5,5,158,165,189,204,222
Key5499,SAN DIEGO,SAN DIEGO,CA,92101,31,1084,1193,946,946,1422,1478,1585,1633,1606
Key5510,TEMPLE CITY,LOS ANGELES,CA,91780,1264,258.2,989,1264,96,1413,1451,1549,814.81,1579
Key5511,ONTARIO,SAN BERNARDINO,CA,91762,23,285,362,101,122,1413,1430,1550,814.81,1593
Key5517,SAN FRANCISCO,SAN FRANCISCO,CA,94107,190,832,839,379,379,960,1030,1122,1198,1141
Key5518,BRENTWOOD,CONTRA COSTA,CA,94513,170,484,570,223,223,1368,846,1025,1108,1081
Key5519,SALINAS,MONTEREY,CA,93905,1190,1252,1358,1162,1175,1758,1768,1967,814.81,1989
Key5523,SAN FRANCISCO,SAN FRANCISCO,CA,94103,96.6,323,323,160.83,164.52,720,739,865,911,888
Key5526,SANTA ROSA,SONOMA,CA,95407,79,832,922,713,719,1049,1236,1295,1474,1341
Key5536,CALISTOGA,NAPA,CA,94515,34,271,301,133,166,379,427,499,573,540
Key5540,FORT IRWIN,SAN BERNARDINO,CA,92310,6,157,149,35,29,379,380,465,608,555
Key5580,BUENA PARK,ORANGE,CA,90620,96.6,258.2,385.85,160.83,164.52,33,287,367,452,375
Key5609,DOWNEY,LOS ANGELES,CA,90242,96.6,258.2,385.85,160.83,164.52,219,298,445,575,462
Key5616,PALM DESERT,RIVERSIDE,CA,92260,286,456,456,314,154,643,580,625,814.81,638
Key5822,GREENFIELD,MONTEREY,CA,93927,43,189,189,124,155,403,403,509,531,567
Key5884,LINCOLN,PLACER,CA,95648,99,199,207,93,102,419,437,522,677,656
Key5897,DESCANSO,SAN DIEGO,CA,91916,73,53,53,73,53,475,385,545,814.81,620
Key5898,JACUMBA,SAN DIEGO,CA,91934,143,48,249,57,53,539,592,657,814.81,672
Key5916,OLYMPIC VALLEY,PLACER,CA,96146,176,325,371,177,182,576,576,618,814.81,676
Key5923,JAMESTOWN,TUOLUMNE,CA,95327,92,185,194,93,184,335,395,472,670,625
Key5988,STEVINSON,MERCED,CA,95374,49,222,238,113,125,442,466,551,627,593
Key6208,CONCORD,CONTRA COSTA,CA,94521,24,1205,1239,513,529,1666,1674,1719,1765,1743
Key6314,LAFAYETTE,CONTRA COSTA,CA,94549,41,2,2,44,44,63,2,2,99,119
Key6348,SACRAMENTO,SACRAMENTO,CA,95833,85,85,168,85,85,639.71,318,429,814.81,431
Key6349,HAYWARD,ALAMEDA,CA,94544,21,148,245,48,113,316,321,392,814.81,429
Key6367,BURLINGAME,SAN MATEO,CA,94010,31,396,488,155,159,706,713,803,874,812
Key6368,MERCED,MERCED,CA,95348,1,49,49,29,29,274,308,336,394,388
Key6369,OAKLAND,ALAMEDA,CA,94607,96.6,299,407,141,203,610,648,796,910,823
Key6370,LIVERMORE,ALAMEDA,CA,94550,96.6,397,411,160.83,164.52,714,718,769,846,824
Key6371,SAN FRANCISCO,SAN FRANCISCO,CA,94124,31,473,559,334,334,695,745,849,886,996
Key6373,SAN JOSE,SANTA CLARA,CA,95117,96.6,258.2,385.85,160.83,164.52,392,395,427,558,518
Key7105,LOS ANGELES,LOS ANGELES,CA,90049,96.6,258.2,857,289,164.52,1657,1725,1896,814.81,1951
Key7106,LA VERNE,LOS ANGELES,CA,91750,771,1106,1162,771,771,1740,1743,1859,1913,1928
Key8386,SAN DIEGO,SAN DIEGO,CA,92104,282,77,264,282,48,302,313,378,814.81,392
Key8411,SAN JOSE,SANTA CLARA,CA,95131,21,71,71,51,97,358,336,415,491,429
Key9267,SAN CLEMENTE,LOS ANGELES,CA,90704,96.6,258.2,385.85,160.83,164.52,427,445,456,814.81,607